STARLINK-34164          
1 64177U 25113H   26068.50335499  .00030445  00000+0  10358-2 0  9991
2 64177  53.1599  92.2103 0001302  89.3298 270.7852 15.30199233 45030
2025-313BE              
1 67482U 25313BE  26068.69721505  .00077178  00000+0  26504-2 0  9996
2 67482  97.3989 145.3568 0007208 335.3714  24.7181 15.29801687  7972
