[{"OBJECT_NAME":"STARLINK-34164","OBJECT_ID":"2025-113H","EPOCH":"2026-03-09T12:04:49.871136","MEAN_MOTION":15.30199233,"ECCENTRICITY":0.00013029,"INCLINATION":53.1599,"RA_OF_ASC_NODE":92.2103,"ARG_OF_PERICENTER":89.3298,"MEAN_ANOMALY":270.7852,"EPHEMERIS_TYPE":0,"CLASSIFICATION_TYPE":"U","NORAD_CAT_ID":64177,"ELEMENT_SET_NO":999,"REV_AT_EPOCH":4503,"BSTAR":0.0010358444,"MEAN_MOTION_DOT":0.00030445,"MEAN_MOTION_DDOT":0},{"OBJECT_NAME":"OBJECT BE","OBJECT_ID":"2025-313BE","EPOCH":"2026-03-09T16:43:59.380320","MEAN_MOTION":15.29801687,"ECCENTRICITY":0.00072083,"INCLINATION":97.3989,"RA_OF_ASC_NODE":145.3568,"ARG_OF_PERICENTER":335.3714,"MEAN_ANOMALY":24.7181,"EPHEMERIS_TYPE":0,"CLASSIFICATION_TYPE":"U","NORAD_CAT_ID":67482,"ELEMENT_SET_NO":999,"REV_AT_EPOCH":797,"BSTAR":0.0026504328,"MEAN_MOTION_DOT":0.00077178,"MEAN_MOTION_DDOT":0}]
